QIANFAN-25              
1 61558U 24185G   26009.26646156  .00000387  00000+0  22804-3 0  9994
2 61558  88.9780  75.0775 0008850 214.5613 145.4995 14.05935009 73374
QIANFAN-26              
1 61559U 24185H   26009.27257378  .00000308  00000+0  29537-3 0  9993
2 61559  88.9792  76.7832 0003681 291.6445  68.4329 13.77829402 72467
QIANFAN-27              
1 61560U 24185J   26009.22956257  .00000556  00000+0  22114-3 0  9991
2 61560  88.9783  73.7239 0007658 181.8186 178.2982 14.27373517 74089
QIANFAN-28              
1 61561U 24185K   26009.26808426  .00000904  00000+0  35789-3 0  9999
2 61561  88.9802  73.7246 0007172 180.4875 179.6314 14.28100062 74102
QIANFAN-29              
1 61562U 24185L   26009.21614704  .00000155  00000+0  22200-3 0  9991
2 61562  88.9769  78.4755 0008811 341.1256  18.9567 13.51022608 71502
QIANFAN-30              
1 61563U 24185M   26009.28594143  .00000193  00000+0  28482-3 0  9993
2 61563  88.9790  78.0043 0006107 326.9376  33.1393 13.49999258 71780
QIANFAN-31              
1 61564U 24185N   26009.23999568  .00000208  00000+0  27144-3 0  9990
2 61564  88.9773  77.7672 0005285 320.0079  40.0686 13.57979500 71898
QIANFAN-32              
1 61565U 24185P   26009.23916149  .00000183  00000+0  26534-3 0  9999
2 61565  88.9832  78.1514 0008715 355.9486   4.1593 13.50747013 71753
